OPTICUBE 04             
1 41851U 16067D   19242.74737622  .00000289  00000-0  30483-4 0  9996
2 41851  97.9180 341.2497 0010018 136.5460 223.6552 14.96820152152843
AEROCUBE 8D             
1 41852U 16067E   19242.82119324  .00000672  00000-0  64069-4 0  9992
2 41852  97.9195 341.1498 0010892 136.2388 223.9698 14.96742086152838
AEROCUBE 8C             
1 41853U 16067F   19242.91268682 -.00000187  00000-0 -11087-4 0  9990
2 41853  97.9198 341.1733 0010941 136.2505 223.9585 14.96710628152843
PROMETHEUS 2-1          
1 41854U 16067G   19243.20336016  .00000220  00000-0  24442-4 0  9996
2 41854  97.9196 341.6350 0011251 137.2011 223.0088 14.96935179152894
PROMETHEUS 2-3          
1 41855U 16067H   19242.80437932  .00000192  00000-0  21954-4 0  9994
2 41855  97.9198 341.2498 0011434 138.8451 221.3635 14.96940187152832
INS-1B                  
1 41954U 17008G   19242.77092268  .00000865  00000-0  38576-4 0  9990
2 41954  97.3943 306.8370 0007645 243.5724 116.4729 15.24062100140934
BGUSAT                  
1 41999U 17008BD  19242.91198205  .00001484  00000-0  59985-4 0  9998
2 41999  97.4021 309.6597 0006479 257.6032 102.4482 15.26301817140467
DIDO-2                  
1 42000U 17008BE  19242.82881652  .00000617  00000-0  28401-4 0  9993
2 42000  97.3956 307.4453 0006845 266.4334  93.6121 15.23980303140342
PEASSS                  
1 42015U 17008BV  19243.13965271  .00000820  00000-0  35757-4 0  9992
2 42015  97.3965 308.8237 0004671 271.2949  88.7753 15.24964772140949
AL-FARABI 1             
1 42016U 17008BW  19242.91063198  .00001024  00000-0  43115-4 0  9999
2 42016  97.3982 309.2242 0004487 270.7553  89.3171 15.25626008141063
NAYIF-1 (EO-88)         
1 42017U 17008BX  19242.63417615  .00000999  00000-0  42079-4 0  9994
2 42017  97.3980 308.9614 0004488 272.6066  87.4659 15.25659910141048
ALTAIR PATHFINDER       
1 42711U 98067LS  19243.13603390  .00046902  00000-0  19005-3 0  9998
2 42711  51.6309 267.5007 0004338  47.6444 312.4926 15.85774054130721
NSIGHT                  
1 42726U 98067MF  19243.17449127  .00017819  00000-0  12788-3 0  9990
2 42726  51.6347 292.1888 0004883  80.8681 279.2870 15.73741466129383
UCLSAT                  
1 42765U 17036A   19242.80496254  .00000804  00000-0  37283-4 0  9996
2 42765  97.3450 299.2313 0010754 341.3424  18.7417 15.22846049122184
LITUANICASAT-2          
1 42768U 17036D   19242.71402454  .00001360  00000-0  60755-4 0  9996
2 42768  97.3488 298.7878 0013963 329.2297  30.8120 15.22970593121420
AALTO-1                 
1 42775U 17036L   19242.80136905  .00000513  00000-0  25882-4 0  9990
2 42775  97.3433 297.8058 0013016 330.1618  29.8875 15.21407996121320
URSA MAIOR              
1 42776U 17036M   19242.68987936  .00000554  00000-0  27576-4 0  9992
2 42776  97.3443 297.8687 0012840 330.5827  29.4685 15.21546766121313
COMPASS 2               
1 42777U 17036N   19242.92552392  .00001104  00000-0  49827-4 0  9999
2 42777  97.3485 299.4607 0011504 330.9542  29.1054 15.23033089121413
DIAMOND RED             
1 42783U 17036U   19242.87662543  .00000598  00000-0  28944-4 0  9993
2 42783  97.3449 298.8431 0011430 341.7809  18.3016 15.22287109121389
PEGASUS                 
1 42784U 17036V   19242.84144962  .00000785  00000-0  36744-4 0  9996
2 42784  97.3454 299.0640 0011310 341.3467  18.7354 15.22591601121399
DIAMOND GREEN           
1 42785U 17036W   19243.13835996  .00000575  00000-0  27958-4 0  9998
2 42785  97.3451 299.1251 0011335 341.5201  18.5623 15.22286126121414
DIAMOND BLUE            
1 42786U 17036X   19242.74314671  .00000648  00000-0  31109-4 0  9991
2 42786  97.3452 298.7365 0011223 343.3872  16.6995 15.22286042121437
NUDTSAT                 
1 42787U 17036Y   19242.92354215  .00000995  00000-0  44451-4 0  9999
2 42787  97.3494 299.9468 0011978 339.9382  20.1380 15.23601429121298
SUCHAI                  
1 42788U 17036Z   19243.15677712  .00000925  00000-0  42225-4 0  9996
2 42788  97.3458 299.7217 0010817 339.4682  20.6119 15.23025015121531
SKCUBE                  
1 42789U 17036AA  19242.71757793  .00000828  00000-0  38233-4 0  9992
2 42789  97.3456 299.2203 0010735 341.4076  18.6767 15.22916312121386
VZLUSAT-1               
1 42790U 17036AB  19242.91053539  .00001147  00000-0  50792-4 0  9992
2 42790  97.3471 299.9339 0010218 339.8262  20.2570 15.23595936121440
ROBUSTA-1B              
1 42792U 17036AD  19242.83747174  .00000931  00000-0  42384-4 0  9998
2 42792  97.3455 299.5039 0010327 341.9625  18.1244 15.23089129121429
CICERO 6                
1 42793U 17036AE  19242.72002009  .00000590  00000-0  28304-4 0  9995
2 42793  97.3438 299.1144 0009677 345.0275  15.0674 15.22653488121467
D-SAT                   
1 42794U 17036AF  19243.08692700  .00000078  00000-0  12437-4 0  9990
2 42794  97.5336 284.5371 0124985 256.8473 101.8776 14.91124579119278
CORVUS BC2              
1 42846U 17042X   19243.18405751  .00000268  00000-0  31696-4 0  9993
2 42846  97.5560 134.2220 0009917 161.2288 198.9299 14.91992809115978
CORVUS BC1              
1 42847U 17042Y   19243.13235932  .00000084  00000-0  13516-4 0  9998
2 42847  97.5561 134.2909 0009573 160.4196 199.7393 14.92093436115963
MIRATA                  
1 43015U 17073C   19242.81743626  .00000528  00000-0  47363-4 0  9998
2 43015  97.7166 161.1825 0253608 279.6016  77.6628 14.79085590 96100
MAKERSAT 0              
1 43016U 17073D   19242.70892824  .00000384  00000-0  36061-4 0  9995
2 43016  97.7200 161.2804 0255859 280.4052  76.8418 14.78811505 96085
ASTERIA                 
1 43020U 98067NH  19243.16898802  .00020383  00000-0  14990-3 0  9992
2 43020  51.6422 303.6696 0003019  43.6283 316.4954 15.73064491101412
DELLINGR (RBLE)         
1 43021U 98067NJ  19243.21266041  .00007532  00000-0  83797-4 0  9996
2 43021  51.6388 320.3521 0002658  30.0909 330.0238 15.64004168101197
AEROCUBE 7B (OCSD B)    
1 43042U 17071F   19242.96360126  .00002627  00000-0  71267-4 0  9994
2 43042  51.6386  54.6107 0005082  65.4466 294.7049 15.41505234 97385
AEROCUBE 7C (OCSD C)    
1 43043U 17071G   19242.89878257  .00002654  00000-0  71889-4 0  9996
2 43043  51.6387  54.9423 0005336  68.8691 291.2864 15.41504144 97342
CHEFSAT                 
1 43044U 17071H   19242.88911705  .00004004  00000-0  94401-4 0  9998
2 43044  51.6391  48.2681 0005060  69.3376 290.8152 15.44340258 97432
ASGARDIA 1              
1 43049U 17071N   19242.90979926  .00002345  00000-0  64400-4 0  9997
2 43049  51.6396  54.3024 0002962  85.9929 274.1395 15.41621140 97351
ISARA                   
1 43050U 17071P   19242.86352656  .00004413  00000-0  10481-3 0  9996
2 43050  51.6379  49.5463 0002766  83.7077 276.4224 15.43839511 97406
PROPCUBE 2 (FAUNA)      
1 43052U 17071R   19242.90186430  .00002606  00000-0  69814-4 0  9995
2 43052  51.6392  53.5181 0002891  83.1264 277.0050 15.41918456 97358
CORVUS BC3              
1 43118U 18004H   19243.19779844  .00000709  00000-0  33254-4 0  9995
2 43118  97.4812 310.2937 0010385   3.8703 356.2612 15.22917621 90665
MICROMAS-2A             
1 43131U 18004W   19242.74686216  .00001162  00000-0  50512-4 0  9990
2 43131  97.4842 310.7034 0009354   7.9003 352.2380 15.24275435 90646
SPACEBEE-4              
1 43139U 18004AE  19242.72660430  .00001666  00000-0  69326-4 0  9998
2 43139  97.4861 311.2759 0008836  11.1308 349.0123 15.25167192 90666
SPACEBEE-3              
1 43140U 18004AF  19242.74474148  .00002077  00000-0  84292-4 0  9997
2 43140  97.4873 311.6058 0008596  11.0432 349.0993 15.25736535 90698
SPACEBEE-2              
1 43141U 18004AG  19242.90304740  .00002371  00000-0  95245-4 0  9993
2 43141  97.4880 311.8697 0008438  10.4394 349.7017 15.25930540 90723
SPACEBEE-1              
1 43142U 18004AH  19242.85959657  .00002515  00000-0  10022-3 0  9990
2 43142  97.4883 311.9493 0008399  10.6618 349.4797 15.26147637 90718
CICERO 7                
1 43143U 18004AJ  19242.76424122  .00001091  00000-0  47466-4 0  9996
2 43143  97.4826 310.9353 0007862  19.2975 340.8558 15.24393428 90668
GOMX-4B                 
1 43196U 18015E   19242.91538419  .00000145  00000-0  89168-5 0  9993
2 43196  97.3999   9.4641 0020400  51.9621 308.3453 15.23990273 87490
GOMX-4A                 
1 43197U 18015F   19243.04004758  .00000285  00000-0  14613-4 0  9990
2 43197  97.4014   9.6195 0020538  52.7976  36.2913 15.24087470 87529
1KUNS-PF                
1 43466U 98067NP  19242.66970710  .00014087  00000-0  12772-3 0  9999
2 43466  51.6371 323.4297 0001576  26.2241 333.8835 15.68331411 74360
UBAKUSAT                
1 43467U 98067NQ  19242.72871582  .00008166  00000-0  90193-4 0  9999
2 43467  51.6380 329.0855 0002624 359.7722   0.3271 15.64052082 74300
BATSU-CS1 (IRAZU)       
1 43468U 98067NR  19242.63362521  .00023184  00000-0  17657-3 0  9998
2 43468  51.6355 318.6431 0001987  20.4908 339.6169 15.72143796174415
CUBERRT                 
1 43546U 98067NU  19242.72652192  .00004897  00000-0  52002-4 0  9995
2 43546  51.6388 329.0697 0004458  53.7994 306.3414 15.66159251 64438
TEMPEST-D               
1 43547U 98067NV  19242.77381363  .00002984  00000-0  44696-4 0  9995
2 43547  51.6397 339.8965 0005891  41.7853 318.3589 15.58589071 63971
RAINCUBE                
1 43548U 98067NW  19242.85149029  .00009867  00000-0  11350-3 0  9993
2 43548  51.6376 333.6388 0005766  49.3689 310.7805 15.62707416 64510
HALOSAT                 
1 43549U 98067NX  19242.73084258  .00009372  00000-0  10847-3 0  9994
2 43549  51.6386 334.3507 0005629  52.7810 307.3698 15.62619593 64054
ENDUROSAT ONE           
1 43551U 98067NZ  19242.73770014  .00010843  00000-0  11595-3 0  9995
2 43551  51.6381 331.3959 0005922  58.1040 302.0531 15.64466133 64501
EQUISAT                 
1 43552U 98067PA  19242.71760550  .00008820  00000-0  10117-3 0  9999
2 43552  51.6395 333.5430 0006304  58.0715 302.0892 15.62942207 64439
